[
    {
        "Altitude(m)": 604234.625350089,
        "Argument of Periapsis(deg)": 0.0,
        "Eccentricity": 0.0,
        "Inclination(deg)": 60.0,
        "Latitude(deg)": 14.117327693006015,
        "Longitude(deg)": 81.72732274485578,
        "Mean Anomaly(deg)": 163.6364,
        "RAAN(deg)": 10.0,
        "Satellite Name": "Test1 54",
        "Satellite Number": 54,
        "Semi-Major Axis(m)": 6980739.136638005,
        "Time(s)": 0
    },
    {
        "Altitude(m)": 604223.4533709602,
        "Argument of Periapsis(deg)": 0.00010418945913296404,
        "Eccentricity": 0.0,
        "Inclination(deg)": 60.0,
        "Latitude(deg)": 13.582464157804742,
        "Longitude(deg)": 82.01423221159556,
        "Mean Anomaly(deg)": 164.25650614546183,
        "RAAN(deg)": 9.999579950860259,
        "Satellite Name": "Test1 54",
        "Satellite Number": 54,
        "Semi-Major Axis(m)": 6980739.136638005,
        "Time(s)": 10
    }
]